NORAD_CAT_ID,OBJECT_NAME,OBJECT_TYPE,EPOCH,MEAN_MOTION,ECCENTRICITY,INCLINATION,RA_OF_ASC_NODE,ARG_OF_PERICENTER,MEAN_ANOMALY,BSTAR,MEAN_MOTION_DOT,MEAN_MOTION_DDOT,TLE_LINE0,TLE_LINE1,TLE_LINE2,SEMIMAJOR_AXIS,PERIOD,APOGEE,PERIGEE,DECAYED
54056.0,STARLINK-5226,PAYLOAD,2024-02-28 09:32:45,15.088432,0.0001469,53.2175,67.5185,103.5896,256.526,8.8712e-05,1.124e-05,0.0,0 STARLINK-5226,1 54056U 22136F   24059.39775390  .00001124  00000-0  88712-4 0  9995,2 54056  53.2175  67.5185 0001469 103.5896 256.5260 15.08843200 75569,6917.871,95.437,540.752,538.719,0.0
54056.0,STARLINK-5226,PAYLOAD,2024-02-28 17:29:42,15.08836005,0.0001548,53.2176,66.0311,90.2455,269.8715,0.0001311,1.799e-05,0.0,0 STARLINK-5226,1 54056U 22136F   24059.72895855  .00001799  00000-0  13110-3 0  9998,2 54056  53.2176  66.0311 0001548  90.2455 269.8715 15.08836005 75619,6917.893,95.438,540.828,538.687,0.0
54056.0,STARLINK-5226,PAYLOAD,2024-02-29 09:23:33,15.08838296,0.0001594,53.2176,63.0579,86.4069,273.7106,0.00013982,1.938e-05,0.0,0 STARLINK-5226,1 54056U 22136F   24060.39135950  .00001938  00000-0  13982-3 0  9998,2 54056  53.2176  63.0579 0001594  86.4069 273.7106 15.08838296 75231,6917.886,95.438,540.853,538.648,0.0
54056.0,STARLINK-5226,PAYLOAD,2024-02-29 17:20:29,15.0883754,0.0001636,53.2179,61.5714,85.0533,275.0646,8.0324e-05,9.9e-06,0.0,0 STARLINK-5226,1 54056U 22136F   24060.72256186  .00000990  00000-0  80324-4 0  9992,2 54056  53.2179  61.5714 0001636  85.0533 275.0646 15.08837540 75286,6917.888,95.438,540.885,538.621,0.0
54056.0,STARLINK-5226,PAYLOAD,2024-03-01 06:03:34,15.08842512,0.0001576,53.2175,59.1925,88.1383,271.979,5.4215e-05,5.75e-06,0.0,0 STARLINK-5226,1 54056U 22136F   24061.25248026  .00000575  00000-0  54215-4 0  9994,2 54056  53.2175  59.1925 0001576  88.1383 271.9790 15.08842512 75368,6917.873,95.437,540.828,538.647,0.0
54056.0,STARLINK-5226,PAYLOAD,2024-03-01 17:11:16,15.08842348,0.0001594,53.2176,57.1108,90.0211,270.0963,5.8662e-05,6.46e-06,0.0,0 STARLINK-5226,1 54056U 22136F   24061.71615968  .00000646  00000-0  58662-4 0  9997,2 54056  53.2176  57.1108 0001594  90.0211 270.0963 15.08842348 75439,6917.873,95.437,540.841,538.636,0.0
54056.0,STARLINK-5226,PAYLOAD,2024-03-02 05:54:20,15.08845664,0.0001483,53.2168,54.7301,92.3996,267.7166,9.1482e-05,1.168e-05,0.0,0 STARLINK-5226,1 54056U 22136F   24062.24607599  .00001168  00000-0  91482-4 0  9994,2 54056  53.2168  54.7301 0001483  92.3996 267.7166 15.08845664 75511,6917.863,95.437,540.754,538.702,0.0
54056.0,STARLINK-5226,PAYLOAD,2024-03-02 17:02:02,15.08849448,0.0001431,53.2165,52.6488,93.855,266.2605,3.4577e-05,2.63e-06,0.0,0 STARLINK-5226,1 54056U 22136F   24062.70975329  .00000263  00000-0  34577-4 0  9991,2 54056  53.2165  52.6488 0001431  93.8550 266.2605 15.08849448 76063,6917.852,95.437,540.706,538.727,0.0
54056.0,STARLINK-5226,PAYLOAD,2024-03-03 04:09:45,15.08837963,0.0001574,53.2179,50.5669,94.149,265.9682,2.3358e-05,8.4e-07,0.0,0 STARLINK-5226,1 54056U 22136F   24063.17344170  .00000084  00000-0  23358-4 0  9993,2 54056  53.2179  50.5669 0001574  94.1490 265.9682 15.08837963 76139,6917.887,95.438,540.84,538.663,0.0
54056.0,STARLINK-5226,PAYLOAD,2024-03-03 08:55:54,15.08840429,0.0001606,53.2178,49.6725,105.2245,254.8925,6.5411e-05,7.53e-06,0.0,0 STARLINK-5226,1 54056U 22136F   24063.37215838  .00000753  00000-0  65411-4 0  9992,2 54056  53.2178  49.6725 0001606 105.2245 254.8925 15.08840429 75685,6917.879,95.438,540.855,538.633,0.0
54056.0,STARLINK-5226,PAYLOAD,2024-03-04 05:35:54,15.08846809,0.0001406,53.2168,45.8096,94.1755,265.9398,7.3286e-05,8.79e-06,0.0,0 STARLINK-5226,1 54056U 22136F   24064.23327372  .00000879  00000-0  73286-4 0  9993,2 54056  53.2168  45.8096 0001406  94.1755 265.9398 15.08846809 76296,6917.86,95.437,540.697,538.752,0.0
54056.0,STARLINK-5226,PAYLOAD,2024-03-04 15:08:13,15.08843613,0.0001211,53.2177,44.0232,101.4645,258.6484,7.3379e-05,8.8e-06,0.0,0 STARLINK-5226,1 54056U 22136F   24064.63071413  .00000880  00000-0  73379-4 0  9994,2 54056  53.2177  44.0232 0001211 101.4645 258.6484 15.08843613 75871,6917.869,95.437,540.572,538.897,0.0
54056.0,STARLINK-5226,PAYLOAD,2024-03-05 03:51:20,15.08824374,0.0001445,53.2187,41.6436,92.6478,267.4679,-6.1297e-05,-1.263e-05,0.0,0 STARLINK-5226,1 54056U 22136F   24065.16065358 -.00001263  00000-0 -61297-4 0  9998,2 54056  53.2187  41.6436 0001445  92.6478 267.4679 15.08824374 76435,6917.928,95.439,540.793,538.794,0.0
54056.0,STARLINK-5226,PAYLOAD,2024-03-05 05:26:43,15.088264,0.0001725,53.2202,41.3545,112.2909,247.8266,-5.2157e-05,-1.118e-05,0.0,0 STARLINK-5226,1 54056U 22136F   24065.22689320 -.00001118  00000-0 -52157-4 0  9990,2 54056  53.2202  41.3545 0001725 112.2909 247.8266 15.08826400 75963,6917.922,95.438,540.98,538.594,0.0
54056.0,STARLINK-5226,PAYLOAD,2024-03-05 14:59:01,15.08835655,0.0001464,53.2195,39.5638,91.2828,268.8332,2.4577e-05,1.03e-06,0.0,0 STARLINK-5226,1 54056U 22136F   24065.62432706  .00000103  00000-0  24577-4 0  9994,2 54056  53.2195  39.5638 0001464  91.2828 268.8332 15.08835655 76502,6917.894,95.438,540.771,538.746,0.0
54056.0,STARLINK-5226,PAYLOAD,2024-03-06 03:42:06,15.08844408,0.0001826,53.2201,37.1905,119.4655,240.6519,7.6673e-05,9.32e-06,0.0,0 STARLINK-5226,1 54056U 22136F   24066.15424258  .00000932  00000-0  76673-4 0  9990,2 54056  53.2201  37.1905 0001826 119.4655 240.6519 15.08844408 76583,6917.867,95.437,540.995,538.469,0.0
54056.0,STARLINK-5226,PAYLOAD,2024-03-06 08:28:15,15.08847148,0.0001428,53.2181,36.2946,90.2675,269.8481,0.00016364,2.318e-05,0.0,0 STARLINK-5226,1 54056U 22136F   24066.35296130  .00002318  00000-0  16364-3 0  9998,2 54056  53.2181  36.2946 0001428  90.2675 269.8481 15.08847148 76137,6917.859,95.437,540.711,538.736,0.0
54056.0,STARLINK-5226,PAYLOAD,2024-03-07 03:32:54,15.08837585,0.0001369,53.2172,32.725,79.6779,280.4367,0.0001149,1.541e-05,0.0,0 STARLINK-5226,1 54056U 22136F   24067.14784781  .00001541  00000-0  11490-3 0  9992,2 54056  53.2172  32.7250 0001369  79.6779 280.4367 15.08837585 76738,6917.888,95.438,540.7,538.806,0.0
54056.0,STARLINK-5226,PAYLOAD,2024-03-07 06:43:40,15.0884668,0.0001537,53.2181,32.1297,77.2991,282.8173,0.00021515,3.138e-05,0.0,0 STARLINK-5226,1 54056U 22136F   24067.28032421  .00003138  00000-0  21515-3 0  9997,2 54056  53.2181  32.1297 0001537  77.2991 282.8173 15.08846680 76276,6917.86,95.437,540.788,538.662,0.0
54056.0,STARLINK-5226,PAYLOAD,2024-03-08 04:59:04,15.08843788,0.0001546,53.2179,27.9674,82.6876,277.4292,1.613e-05,-3.1e-07,0.0,0 STARLINK-5226,1 54056U 22136F   24068.20768602 -.00000031  00000-0  16130-4 0  9995,2 54056  53.2179  27.9674 0001546  82.6876 277.4292 15.08843788 76892,6917.869,95.437,540.803,538.664,0.0
54056.0,STARLINK-5226,PAYLOAD,2024-03-08 14:31:23,15.08842293,0.0001592,53.2187,26.1813,81.7992,278.3181,-7.4258e-05,-1.47e-05,0.0,0 STARLINK-5226,1 54056U 22136F   24068.60512746 -.00001470  00000-0 -74258-4 0  9999,2 54056  53.2187  26.1813 0001592  81.7992 278.3181 15.08842293 76478,6917.873,95.437,540.84,538.637,0.0
54056.0,STARLINK-5226,PAYLOAD,2024-03-08 20:52:56,15.08834063,0.0001595,53.2183,24.9927,86.7228,273.3946,1.4624e-05,-5.5e-07,0.0,0 STARLINK-5226,1 54056U 22136F   24068.87009288 -.00000055  00000-0  14624-4 0  9998,2 54056  53.2183  24.9927 0001595  86.7228 273.3946 15.08834063 76511,6917.899,95.438,540.867,538.66,0.0
54056.0,STARLINK-5226,PAYLOAD,2024-03-09 03:14:28,15.08839835,0.0001583,53.2177,23.8057,85.7085,274.4088,1.0506e-05,-1.21e-06,0.0,0 STARLINK-5226,1 54056U 22136F   24069.13505084 -.00000121  00000-0  10506-4 0  9992,2 54056  53.2177  23.8057 0001583  85.7085 274.4088 15.08839835 77032,6917.881,95.438,540.841,538.651,0.0
54056.0,STARLINK-5226,PAYLOAD,2024-03-09 14:22:10,15.08845212,0.0001512,53.2183,21.7212,96.0814,264.035,9.5338e-05,1.23e-05,0.0,0 STARLINK-5226,1 54056U 22136F   24069.59872694  .00001230  00000-0  95338-4 0  9993,2 54056  53.2183  21.7212 0001512  96.0814 264.0350 15.08845212 76623,6917.864,95.437,540.775,538.683,0.0
54056.0,STARLINK-5226,PAYLOAD,2024-03-10 03:05:14,15.08852724,0.0001494,53.2174,19.343,91.1918,268.9245,0.00028991,4.331e-05,0.0,0 STARLINK-5226,1 54056U 22136F   24070.12864260  .00004331  00000-0  28991-3 0  9999,2 54056  53.2174  19.3430 0001494  91.1918 268.9245 15.08852724 77182,6917.841,95.437,540.74,538.673,0.0
54056.0,STARLINK-5226,PAYLOAD,2024-03-10 06:16:00,15.08857795,0.000168,53.2178,18.748,85.6315,274.4869,0.00032711,4.924e-05,0.0,0 STARLINK-5226,1 54056U 22136F   24070.26111994  .00004924  00000-0  32711-3 0  9996,2 54056  53.2178  18.7480 0001680  85.6315 274.4869 15.08857795 76726,6917.826,95.436,540.853,538.529,0.0
54056.0,STARLINK-5226,PAYLOAD,2024-03-11 02:56:02,15.08829271,0.0001448,53.2178,14.8827,87.7255,272.3903,-0.00014071,-2.526e-05,0.0,0 STARLINK-5226,1 54056U 22136F   24071.12224798 -.00002526  00000-0 -14071-3 0  9996,2 54056  53.2178  14.8827 0001448  87.7255 272.3903 15.08829271 77338,6917.913,95.438,540.78,538.776,0.0
54056.0,STARLINK-5226,PAYLOAD,2024-03-11 20:25:16,15.08835257,0.0001406,53.2185,11.6111,91.9697,268.1456,-0.00011966,-2.192e-05,0.0,0 STARLINK-5226,1 54056U 22136F   24071.85088718 -.00002192  00000-0 -11966-3 0  9995,2 54056  53.2185  11.6111 0001406  91.9697 268.1456 15.08835257 77447,6917.895,95.438,540.733,538.787,0.0
54056.0,STARLINK-5226,PAYLOAD,2024-03-12 02:46:48,15.08843561,0.0001423,53.2182,10.4247,91.1276,268.9879,5.0552e-05,5.17e-06,0.0,0 STARLINK-5226,1 54056U 22136F   24072.11584343  .00000517  00000-0  50552-4 0  9992,2 54056  53.2182  10.4247 0001423  91.1276 268.9879 15.08843561 77483,6917.87,95.437,540.719,538.75,0.0
54056.0,STARLINK-5226,PAYLOAD,2024-03-12 20:16:04,15.08835275,0.0001428,53.2182,7.1497,91.3975,268.7181,0.0003036,4.547e-05,0.0,0 STARLINK-5226,1 54056U 22136F   24072.84449179  .00004547  00000-0  30360-3 0  9990,2 54056  53.2182   7.1497 0001428  91.3975 268.7181 15.08835275 77113,6917.895,95.438,540.748,538.772,0.0
